NORAD_CAT_ID,OBJECT_NAME,OBJECT_TYPE,EPOCH,MEAN_MOTION,ECCENTRICITY,INCLINATION,RA_OF_ASC_NODE,ARG_OF_PERICENTER,MEAN_ANOMALY,BSTAR,MEAN_MOTION_DOT,MEAN_MOTION_DDOT,TLE_LINE0,TLE_LINE1,TLE_LINE2,SEMIMAJOR_AXIS,PERIOD,APOGEE,PERIGEE,DECAYED
53628.0,STARLINK-4600,PAYLOAD,2024-05-20 17:50:18,15.08863569,0.0001209,53.2161,307.3221,110.802,249.3102,0.0014563,0.0002298,0.0,0 STARLINK-4600,1 53628U 22104AS  24141.74326587  .00022980  00000-0  14563-2 0  9999,2 53628  53.2161 307.3221 0001209 110.8020 249.3102 15.08863569 95743,6917.808,95.436,540.51,538.837,0.0
53628.0,STARLINK-4600,PAYLOAD,2024-05-21 01:47:13,15.08871366,0.0001043,53.2151,305.8332,83.6811,276.43,0.00078944,0.00012309,0.0,0 STARLINK-4600,1 53628U 22104AS  24142.07446065  .00012309  00000-0  78944-3 0  9998,2 53628  53.2151 305.8332 0001043  83.6811 276.4300 15.08871366 95799,6917.785,95.436,540.371,538.928,0.0
53628.0,STARLINK-4600,PAYLOAD,2024-05-21 14:30:18,15.08843599,0.0001046,53.2164,303.4567,78.042,282.0689,0.0001865,2.682e-05,0.0,0 STARLINK-4600,1 53628U 22104AS  24142.60438569  .00002682  00000-0  18650-3 0  9998,2 53628  53.2164 303.4567 0001046  78.0420 282.0689 15.08843599 96560,6917.869,95.437,540.458,539.011,0.0
53628.0,STARLINK-4600,PAYLOAD,2024-05-21 16:05:42,15.08839427,0.0001094,53.2164,303.1595,66.8979,293.2128,0.0012008,0.00018874,0.0,0 STARLINK-4600,1 53628U 22104AS  24142.67062704  .00018874  00000-0  12008-2 0  9999,2 53628  53.2164 303.1595 0001094  66.8979 293.2128 15.08839427 95886,6917.882,95.438,540.504,538.99,0.0
53628.0,STARLINK-4600,PAYLOAD,2024-05-22 11:10:20,15.08846895,0.0001587,53.2174,299.5908,38.5169,321.5936,0.0008918,0.00013936,0.0,0 STARLINK-4600,1 53628U 22104AS  24143.46551108  .00013936  00000-0  89180-3 0  9998,2 53628  53.2174 299.5908 0001587  38.5169 321.5936 15.08846895 96001,6917.859,95.437,540.822,538.626,0.0
53628.0,STARLINK-4600,PAYLOAD,2024-05-23 01:28:48,15.08849117,0.000152,53.2166,296.9217,34.1938,325.9152,0.00048276,7.405e-05,0.0,0 STARLINK-4600,1 53628U 22104AS  24144.06166953  .00007405  00000-0  48276-3 0  9990,2 53628  53.2166 296.9217 0001520  34.1938 325.9152 15.08849117 96096,6917.853,95.437,540.769,538.666,0.0
53628.0,STARLINK-4600,PAYLOAD,2024-05-23 11:01:07,15.0882691,8.92e-05,53.2166,295.1353,55.7016,304.4061,-0.00012841,-2.33e-05,0.0,0 STARLINK-4600,1 53628U 22104AS  24144.45911152 -.00002330  00000-0 -12841-3 0  9995,2 53628  53.2166 295.1353 0000892  55.7016 304.4061 15.08826910 96159,6917.92,95.438,540.402,539.168,0.0
53628.0,STARLINK-4600,PAYLOAD,2024-05-23 14:11:53,15.08831833,0.0001473,53.2155,294.531,105.205,254.9105,5.1756e-05,5.36e-06,0.0,0 STARLINK-4600,1 53628U 22104AS  24144.59159009  .00000536  00000-0  51756-4 0  9998,2 53628  53.2155 294.5310 0001473 105.2050 254.9105 15.08831833 96864,6917.905,95.438,540.789,538.751,0.0
53628.0,STARLINK-4600,PAYLOAD,2024-05-23 17:22:39,15.08841112,0.0001348,53.2171,293.9374,80.2504,279.8641,0.00037967,5.76e-05,0.0,0 STARLINK-4600,1 53628U 22104AS  24144.72407040  .00005760  00000-0  37967-3 0  9995,2 53628  53.2171 293.9374 0001348  80.2504 279.8641 15.08841112 96190,6917.877,95.437,540.675,538.809,0.0
53628.0,STARLINK-4600,PAYLOAD,2024-05-24 14:02:40,15.08849055,0.0001081,53.2152,290.0764,76.9363,283.175,0.00037662,5.713e-05,0.0,0 STARLINK-4600,1 53628U 22104AS  24145.58518892  .00005713  00000-0  37662-3 0  9998,2 53628  53.2152 290.0764 0001081  76.9363 283.1750 15.08849055 97014,6917.853,95.437,540.466,538.97,0.0
53628.0,STARLINK-4600,PAYLOAD,2024-05-24 18:48:49,15.08862665,0.00012,53.2153,289.1823,88.3483,271.7646,0.00076557,0.00011925,0.0,0 STARLINK-4600,1 53628U 22104AS  24145.78390403  .00011925  00000-0  76557-3 0  9994,2 53628  53.2153 289.1823 0001200  88.3483 271.7646 15.08862665 96358,6917.811,95.436,540.506,538.846,0.0
53628.0,STARLINK-4600,PAYLOAD,2024-05-25 09:07:18,15.0883437,0.0001311,53.2147,286.5014,127.7742,232.3369,-0.00018383,-3.212e-05,0.0,0 STARLINK-4600,1 53628U 22104AS  24146.38006977 -.00003212  00000-0 -18383-3 0  9996,2 53628  53.2147 286.5014 0001311 127.7742 232.3369 15.08834370 96440,6917.898,95.438,540.67,538.856,0.0
53628.0,STARLINK-4600,PAYLOAD,2024-05-25 15:28:51,15.08831577,0.0001487,53.2151,285.316,84.3383,275.7778,-0.00010065,-1.889e-05,0.0,0 STARLINK-4600,1 53628U 22104AS  24146.64503620 -.00001889  00000-0 -10065-3 0  9999,2 53628  53.2151 285.3160 0001487  84.3383 275.7778 15.08831577 97179,6917.906,95.438,540.8,538.742,0.0
53628.0,STARLINK-4600,PAYLOAD,2024-05-26 13:44:15,15.08843559,0.0001192,53.2163,281.1561,47.5866,312.5227,0.00030792,4.617e-05,0.0,0 STARLINK-4600,1 53628U 22104AS  24147.57239672  .00004617  00000-0  30792-3 0  9994,2 53628  53.2163 281.1561 0001192  47.5866 312.5227 15.08843559 97319,6917.87,95.437,540.559,538.91,0.0
53628.0,STARLINK-4600,PAYLOAD,2024-05-26 18:30:23,15.08855736,0.0001063,53.2164,280.261,82.1653,277.946,0.0005875,9.079e-05,0.0,0 STARLINK-4600,1 53628U 22104AS  24147.77111064  .00009079  00000-0  58750-3 0  9991,2 53628  53.2164 280.2610 0001063  82.1653 277.9460 15.08855736 96650,6917.832,95.437,540.433,538.962,0.0
53628.0,STARLINK-4600,PAYLOAD,2024-05-27 13:35:01,15.08843278,9.68e-05,53.2165,276.6876,93.4255,266.6848,0.00015404,2.165e-05,0.0,0 STARLINK-4600,1 53628U 22104AS  24148.56599342  .00002165  00000-0  15404-3 0  9996,2 53628  53.2165 276.6876 0000968  93.4255 266.6848 15.08843278 96776,6917.87,95.437,540.405,539.066,0.0
53628.0,STARLINK-4600,PAYLOAD,2024-05-27 15:10:24,15.08843741,0.0001349,53.2182,276.3873,129.8345,230.2766,0.00014393,2.004e-05,0.0,0 STARLINK-4600,1 53628U 22104AS  24148.63223163  .00002004  00000-0  14393-3 0  9997,2 53628  53.2182 276.3873 0001349 129.8345 230.2766 15.08843741 97476,6917.869,95.437,540.667,538.801,0.0
53628.0,STARLINK-4600,PAYLOAD,2024-05-27 18:21:11,15.0884615,0.0001046,53.2168,275.7983,82.3575,277.7536,0.00019069,2.749e-05,0.0,0 STARLINK-4600,1 53628U 22104AS  24148.76471275  .00002749  00000-0  19069-3 0  9991,2 53628  53.2168 275.7983 0001046  82.3575 277.7536 15.08846150 97497,6917.862,95.437,540.45,539.003,0.0
53628.0,STARLINK-4600,PAYLOAD,2024-05-28 13:25:48,15.08848612,0.0001111,53.2161,272.2305,104.8609,255.2506,3.3166e-05,2.4e-06,0.0,0 STARLINK-4600,1 53628U 22104AS  24149.55958802  .00000240  00000-0  33166-4 0  9994,2 53628  53.2161 272.2305 0001111 104.8609 255.2506 15.08848612 97618,6917.854,95.437,540.488,538.95,0.0
53628.0,STARLINK-4600,PAYLOAD,2024-05-29 13:16:36,15.08836937,0.0001148,53.2164,267.7686,84.396,275.7163,1.9779e-05,2.7e-07,0.0,0 STARLINK-4600,1 53628U 22104AS  24150.55319611  .00000027  00000-0  19779-4 0  9992,2 53628  53.2164 267.7686 0001148  84.3960 275.7163 15.08836937 97077,6917.89,95.438,540.549,538.961,0.0
53628.0,STARLINK-4600,PAYLOAD,2024-05-30 13:07:22,15.0884911,0.0001118,53.2158,263.3137,92.3567,267.7553,0.00020125,2.917e-05,0.0,0 STARLINK-4600,1 53628U 22104AS  24151.54679033  .00002917  00000-0  20125-3 0  9995,2 53628  53.2158 263.3137 0001118  92.3567 267.7553 15.08849110 97220,6917.853,95.437,540.491,538.944,0.0
53628.0,STARLINK-4600,PAYLOAD,2024-05-30 14:42:45,15.08852277,0.0001169,53.2163,263.0162,98.672,261.4405,0.00023929,3.524e-05,0.0,0 STARLINK-4600,1 53628U 22104AS  24151.61302834  .00003524  00000-0  23929-3 0  9995,2 53628  53.2163 263.0162 0001169  98.6720 261.4405 15.08852277 97929,6917.843,95.437,540.517,538.899,0.0
53628.0,STARLINK-4600,PAYLOAD,2024-05-31 12:58:09,15.08845824,0.0001408,53.2168,258.8543,109.7196,250.3948,0.00020207,2.93e-05,0.0,0 STARLINK-4600,1 53628U 22104AS  24152.54039222  .00002930  00000-0  20207-3 0  9992,2 53628  53.2168 258.8543 0001408 109.7196 250.3948 15.08845824 97374,6917.863,95.437,540.702,538.754,0.0
53628.0,STARLINK-4600,PAYLOAD,2024-05-31 14:33:32,15.0884872,0.0001241,53.2164,258.5557,86.8915,273.2219,0.00024088,3.549e-05,0.0,0 STARLINK-4600,1 53628U 22104AS  24152.60663119  .00003549  00000-0  24088-3 0  9995,2 53628  53.2164 258.5557 0001241  86.8915 273.2219 15.08848720 98072,6917.854,95.437,540.577,538.86,0.0
53628.0,STARLINK-4600,PAYLOAD,2024-05-31 16:08:55,15.08852291,0.0001242,53.216,258.2582,100.602,259.5112,0.00030727,4.607e-05,0.0,0 STARLINK-4600,1 53628U 22104AS  24152.67286876  .00004607  00000-0  30727-3 0  9996,2 53628  53.2160 258.2582 0001242 100.6020 259.5112 15.08852291 98084,6917.843,95.437,540.567,538.849,0.0
53628.0,STARLINK-4600,PAYLOAD,2024-06-01 12:48:56,15.08842042,0.0001294,53.2155,254.3898,83.4877,276.6262,-2.1946e-06,-3.23e-06,0.0,0 STARLINK-4600,1 53628U 22104AS  24153.53398970 -.00000323  00000-0 -21946-5 0  9999,2 53628  53.2155 254.3898 0001294  83.4877 276.6262 15.08842042 97527,6917.874,95.437,540.634,538.844,0.0
53628.0,STARLINK-4600,PAYLOAD,2024-06-01 14:24:19,15.08843523,0.0001262,53.2155,254.0925,82.9905,277.1231,4.4345e-05,4.18e-06,0.0,0 STARLINK-4600,1 53628U 22104AS  24153.60022923  .00000418  00000-0  44345-4 0  9999,2 53628  53.2155 254.0925 0001262  82.9905 277.1231 15.08843523 98221,6917.87,95.437,540.608,538.862,0.0
53628.0,STARLINK-4600,PAYLOAD,2024-06-01 23:56:38,15.08835164,0.0001252,53.2151,252.3071,79.6956,280.4177,-1.5089e-05,-5.28e-06,0.0,0 STARLINK-4600,1 53628U 22104AS  24153.99767358 -.00000528  00000-0 -15089-4 0  9996,2 53628  53.2151 252.3071 0001252  79.6956 280.4177 15.08835164 97595,6917.895,95.438,540.626,538.894,0.0
53628.0,STARLINK-4600,PAYLOAD,2024-06-02 12:39:44,15.08836256,0.000121,53.2159,249.9294,83.9192,276.1938,3.1794e-05,2.18e-06,0.0,0 STARLINK-4600,1 53628U 22104AS  24154.52759858  .00000218  00000-0  31794-4 0  9997,2 53628  53.2159 249.9294 0001210  83.9192 276.1938 15.08836256 98362,6917.892,95.438,540.594,538.92,0.0
53628.0,STARLINK-4600,PAYLOAD,2024-06-03 12:30:31,15.08850797,0.0001209,53.2151,245.4688,81.4427,278.6702,0.00035121,5.308e-05,0.0,0 STARLINK-4600,1 53628U 22104AS  24155.52119545  .00005308  00000-0  35121-3 0  9993,2 53628  53.2151 245.4688 0001209  81.4427 278.6702 15.08850797 97826,6917.847,95.437,540.549,538.876,0.0
